{
  "type": "FeatureCollection",
  "features": [
    {
      "type": "Feature",
      "properties": {
        "norad_id": 54741,
        "name": "GALAXY 35 (G-35)",
        "group": "intelsat",
        "lat": -0.041292051565393936,
        "lon": -72.97950993127849,
        "alt_km": 35777.58080943668,
        "timestamp": "2025-12-18T19:29:52.211023+00:00",
        "meta_object_name": "GALAXY 35 (G-35)",
        "meta_object_id": "2022-170A",
        "meta_epoch": "2025-12-18T06:00:15.173568",
        "meta_mean_motion": 1.00270994,
        "meta_eccentricity": 0.00021463,
        "meta_inclination": 0.0191,
        "meta_ra_of_asc_node": 24.87,
        "meta_arg_of_pericenter": 246.4879,
        "meta_mean_anomaly": 172.7104,
        "meta_ephemeris_type": 0,
        "meta_classification_type": "U",
        "meta_norad_cat_id": 54741,
        "meta_element_set_no": 999,
        "meta_rev_at_epoch": 1107,
        "meta_bstar": 0,
        "meta_mean_motion_dot": 0,
        "meta_mean_motion_ddot": 0,
        "tle_line1": "1 54741U 22170A   25352.25017562  .00000000  00000+0  00000+0 0  9996",
        "tle_line2": "2 54741   0.0191  24.8700 0002146 246.4879 172.7104  1.00270994 11071"
      },
      "geometry": {
        "type": "Point",
        "coordinates": [
          -72.97950993127849,
          -0.041292051565393936
        ]
      }
    },
    {
      "type": "Feature",
      "properties": {
        "norad_id": 54742,
        "name": "GALAXY 36 (G-36)",
        "group": "intelsat",
        "lat": -0.011391619691540018,
        "lon": -68.87315794243455,
        "alt_km": 35785.46640838773,
        "timestamp": "2025-12-18T19:29:52.211035+00:00",
        "meta_object_name": "GALAXY 36 (G-36)",
        "meta_object_id": "2022-170B",
        "meta_epoch": "2025-12-17T14:36:52.642368",
        "meta_mean_motion": 1.0027201,
        "meta_eccentricity": 2.709e-05,
        "meta_inclination": 0.0136,
        "meta_ra_of_asc_node": 286.7849,
        "meta_arg_of_pericenter": 61.0617,
        "meta_mean_anomaly": 228.8591,
        "meta_ephemeris_type": 0,
        "meta_classification_type": "U",
        "meta_norad_cat_id": 54742,
        "meta_element_set_no": 999,
        "meta_rev_at_epoch": 1095,
        "meta_bstar": 0,
        "meta_mean_motion_dot": -1.6e-06,
        "meta_mean_motion_ddot": 0,
        "tle_line1": "1 54742U 22170B   25351.60894262 -.00000160  00000+0  00000+0 0  9993",
        "tle_line2": "2 54742   0.0136 286.7849 0000270  61.0617 228.8591  1.00272010 10951"
      },
      "geometry": {
        "type": "Point",
        "coordinates": [
          -68.87315794243455,
          -0.011391619691540018
        ]
      }
    },
    {
      "type": "Feature",
      "properties": {
        "norad_id": 57493,
        "name": "GALAXY 37 (G-37)",
        "group": "intelsat",
        "lat": -0.034380607411900604,
        "lon": -106.8721533752348,
        "alt_km": 35777.981955747455,
        "timestamp": "2025-12-18T19:29:52.211046+00:00",
        "meta_object_name": "GALAXY 37 (G-37)",
        "meta_object_id": "2023-112A",
        "meta_epoch": "2025-12-17T22:59:40.004160",
        "meta_mean_motion": 1.00272187,
        "meta_eccentricity": 0.00020138,
        "meta_inclination": 0.0114,
        "meta_ra_of_asc_node": 322.1916,
        "meta_arg_of_pericenter": 312.6639,
        "meta_mean_anomaly": 29.8977,
        "meta_ephemeris_type": 0,
        "meta_classification_type": "U",
        "meta_norad_cat_id": 57493,
        "meta_element_set_no": 999,
        "meta_rev_at_epoch": 872,
        "meta_bstar": 0,
        "meta_mean_motion_dot": 7.3e-07,
        "meta_mean_motion_ddot": 0,
        "tle_line1": "1 57493U 23112A   25351.95810190  .00000073  00000+0  00000+0 0  9994",
        "tle_line2": "2 57493   0.0114 322.1916 0002013 312.6639  29.8977  1.00272187  8723"
      },
      "geometry": {
        "type": "Point",
        "coordinates": [
          -106.8721533752348,
          -0.034380607411900604
        ]
      }
    }
  ]
}